ONEWEB-0716             
1 55177U 23004AP  25200.36879621 -.00000096  00000+0 -28013-3 0  9998
2 55177  87.9045  72.1304 0002028  84.3763 275.7599 13.17649043123750
ONEWEB-0717             
1 55178U 23004AQ  25200.35192002 -.00000009  00000+0 -55323-4 0  9998
2 55178  87.9046  72.0930 0001043  77.7428 282.3820 13.17649316123806
ONEWEB-0719             
1 55179U 23004AR  25200.21017139  .00000001  00000+0 -30310-4 0  9991
2 55179  87.9044  72.1045 0001968  86.9261 273.2095 13.17649452123732
ONEWEB-0530             
1 55796U 23029A   25199.83633060 -.00000020  00000+0 -81908-4 0  9996
2 55796  87.9285 340.8898 0001580 111.7010 248.4292 13.20771696117145
ONEWEB-0534             
1 55797U 23029B   25199.44492481 -.00000156  00000+0 -41591-3 0  9997
2 55797  87.9284 340.9747 0001989  98.0719 262.0640 13.20770235117096
ONEWEB-0556             
1 55798U 23029C   25200.43608039 -.00000032  00000+0 -10946-3 0  9991
2 55798  87.9290 340.7707 0002271 115.2314 244.9055 13.20771922117910
ONEWEB-0562             
1 55799U 23029D   25199.66588219  .00000079  00000+0  16285-3 0  9992
2 55799  87.9280 340.9154 0001746 127.4783 232.6509 13.20770986117129
ONEWEB-0563             
1 55800U 23029E   25199.65956274 -.00000341  00000+0 -87100-3 0  9992
2 55800  87.9280 340.9319 0002205  97.0015 263.1369 13.20772996117111
